
    {
      "objectName": "ONEWEB-0141",
      "objectId": "2020-100AF",
      "noradId": 47287,
      "epochUtc": "2026-02-27T05:36:33.285312",
      "meanMotionRevPerDay": 13.12443082,
      "eccentricity": 0.00020247,
      "inclinationDeg": 87.899,
      "raanDeg": 12.4668,
      "argPerigeeDeg": 72.0895,
      "meanAnomalyDeg": 288.0454,
      "bstar": 0.0010106926,
      "meanMotionDot": 0.00000376,
      "meanMotionDdot": 0,
      "elementSetNo": 999,
      "revAtEpoch": 25025
    },
    {
      "objectName": "ONEWEB-0144",
      "objectId": "2020-100AJ",
      "noradId": 47290,
      "epochUtc": "2026-02-26T14:14:34.760832",
      "meanMotionRevPerDay": 13.12441829,
      "eccentricity": 0.0002122,
      "inclinationDeg": 87.8987,
      "raanDeg": 12.5846,
      "argPerigeeDeg": 86.3542,
      "meanAnomalyDeg": 273.7829,
      "bstar": -0.0010761,
      "meanMotionDot": -0.00000374,
      "meanMotionDdot": 0,
      "elementSetNo": 999,
      "revAtEpoch": 25006
    },
    {
      "objectName": "ONEWEB-0115",
      "objectId": "2021-025A",
      "noradId": 48042,
      "epochUtc": "2026-02-27T06:02:04.564608",
      "meanMotionRevPerDay": 13.13468673,
      "eccentricity": 0.00017208,
      "inclinationDeg": 87.9049,
      "raanDeg": 342.0798,
      "argPerigeeDeg": 78.134,
      "meanAnomalyDeg": 281.9982,
      "bstar": 0.00028417103,
      "meanMotionDot": 0.00000117,
      "meanMotionDdot": 0,
      "elementSetNo": 999,
      "revAtEpoch": 23916
    },
    {
      "objectName": "ONEWEB-0116",
      "objectId": "2021-025E",
      "noradId": 48046,
      "epochUtc": "2026-02-26T17:53:12.043392",
      "meanMotionRevPerDay": 13.13468436,
      "eccentricity": 0.00016184,
      "inclinationDeg": 87.9048,
      "raanDeg": 342.1725,
      "argPerigeeDeg": 78.4963,
      "meanAnomalyDeg": 281.6348,
      "bstar": -0.00055245271,
      "meanMotionDot": -0.00000189,
      "meanMotionDdot": 0,
      "elementSetNo": 999,
      "revAtEpoch": 23915
    },
    {
      "objectName": "ONEWEB-0101",
      "objectId": "2021-025H",
      "noradId": 48049,
      "epochUtc": "2026-02-27T05:15:45.924192",
      "meanMotionRevPerDay": 13.134692,
      "eccentricity": 0.00018854,
      "inclinationDeg": 87.9043,
      "raanDeg": 342.0974,
      "argPerigeeDeg": 82.3119,
      "meanAnomalyDeg": 277.8224,
      "bstar": 0.00039343201,
      "meanMotionDot": 0.00000156,
      "meanMotionDdot": 0,
      "elementSetNo": 999,
      "revAtEpoch": 23906
    },
    {
      "objectName": "ONEWEB-0161",
      "objectId": "2021-025M",
      "noradId": 48053,
      "epochUtc": "2026-02-27T05:52:19.901856",
      "meanMotionRevPerDay": 13.13468506,
      "eccentricity": 0.0001972,
      "inclinationDeg": 87.9043,
      "raanDeg": 342.0846,
      "argPerigeeDeg": 78.5239,
      "meanAnomalyDeg": 281.6111,
      "bstar": 0.00072982667,
      "meanMotionDot": 0.00000279,
      "meanMotionDdot": 0,
      "elementSetNo": 999,
      "revAtEpoch": 23907
    },
    {
      "objectName": "ONEWEB-0162",
      "objectId": "2021-025Q",
      "noradId": 48056,
      "epochUtc": "2026-02-27T04:56:03.908256",
      "meanMotionRevPerDay": 13.13471485,
      "eccentricity": 0.00018158,
      "inclinationDeg": 87.9049,
      "raanDeg": 342.0912,
      "argPerigeeDeg": 73.6629,
      "meanAnomalyDeg": 286.47,
      "bstar": -0.00056585491,
      "meanMotionDot": -0.00000194,
      "meanMotionDdot": 0,
      "elementSetNo": 999,
      "revAtEpoch": 23910
    },
    {
      "objectName": "ONEWEB-0160",
      "objectId": "2021-025U",
      "noradId": 48060,
      "epochUtc": "2026-02-27T05:08:26.589696",
      "meanMotionRevPerDay": 13.13470116,
      "eccentricity": 0.00010014,
      "inclinationDeg": 87.9038,
      "raanDeg": 342.0976,
      "argPerigeeDeg": 81.2656,
      "meanAnomalyDeg": 278.8586,
      "bstar": 0.00011663751,
      "meanMotionDot": 5.5e-7,
      "meanMotionDdot": 0,
      "elementSetNo": 999,
      "revAtEpoch": 23912
    },
    {
      "objectName": "ONEWEB-0167",
      "objectId": "2021-025Y",
      "noradId": 48064,
      "epochUtc": "2026-02-26T17:49:33.363264",
      "meanMotionRevPerDay": 13.13470425,
      "eccentricity": 0.00021864,
      "inclinationDeg": 87.9039,
      "raanDeg": 342.1954,
      "argPerigeeDeg": 95.5935,
      "meanAnomalyDeg": 264.5444,
      "bstar": -0.00067634336,
      "meanMotionDot": -0.00000234,
      "meanMotionDdot": 0,
      "elementSetNo": 999,
      "revAtEpoch": 23907
    },
    {
      "objectName": "ONEWEB-0170",
      "objectId": "2021-025AB",
      "noradId": 48067,
      "epochUtc": "2026-02-27T05:35:15.793152",
      "meanMotionRevPerDay": 13.13468793,
      "eccentricity": 0.00016479,
      "inclinationDeg": 87.9048,
      "raanDeg": 342.0871,
      "argPerigeeDeg": 105.3597,
      "meanAnomalyDeg": 254.7714,
      "bstar": 0.0011924572,
      "meanMotionDot": 0.00000448,
      "meanMotionDdot": 0,
      "elementSetNo": 999,
      "revAtEpoch": 23911
    },
    {
      "objectName": "ONEWEB-0172",
      "objectId": "2021-025AF",
      "noradId": 48071,
      "epochUtc": "2026-02-27T05:25:30.980928",
      "meanMotionRevPerDay": 13.13469493,
      "eccentricity": 0.00018659,
      "inclinationDeg": 87.9036,
      "raanDeg": 342.0878,
      "argPerigeeDeg": 83.7969,
      "meanAnomalyDeg": 276.3373,
      "bstar": 0.00068684239,
      "meanMotionDot": 0.00000264,
      "meanMotionDdot": 0,
      "elementSetNo": 999,
      "revAtEpoch": 24007
    },
    {
      "objectName": "ONEWEB-0178",
      "objectId": "2021-025AK",
      "noradId": 48075,
      "epochUtc": "2026-02-27T06:26:39.080832",
      "meanMotionRevPerDay": 13.13469248,
      "eccentricity": 0.00019046,
      "inclinationDeg": 87.9029,
      "raanDeg": 342.1056,
      "argPerigeeDeg": 86.0361,
      "meanAnomalyDeg": 274.0986,
      "bstar": -0.00069517506,
      "meanMotionDot": -0.00000241,
      "meanMotionDdot": 0,
      "elementSetNo": 999,
      "revAtEpoch": 23929
    },
    {
      "objectName": "ONEWEB-0176",
      "objectId": "2021-031A",
      "noradId": 48210,
      "epochUtc": "2026-02-27T06:21:27.150048",
      "meanMotionRevPerDay": 13.14501032,
      "eccentricity": 0.0001731,
      "inclinationDeg": 87.9003,
      "raanDeg": 311.6286,
      "argPerigeeDeg": 82.8243,
      "meanAnomalyDeg": 277.3083,
      "bstar": -0.00048179128,
      "meanMotionDot": -0.00000166,
      "meanMotionDdot": 0,
      "elementSetNo": 999,
      "revAtEpoch": 23387
    },
    {
      "objectName": "ONEWEB-0218",
      "objectId": "2021-031E",
      "noradId": 48214,
      "epochUtc": "2026-02-27T04:29:33.874368",
      "meanMotionRevPerDay": 13.14501634,
      "eccentricity": 0.00022029,
      "inclinationDeg": 87.9007,
      "raanDeg": 311.6363,
      "argPerigeeDeg": 102.7659,
      "meanAnomalyDeg": 257.3717,
      "bstar": -0.0003476058,
      "meanMotionDot": -0.00000116,
      "meanMotionDdot": 0,
      "elementSetNo": 999,
      "revAtEpoch": 23392
    }