ONEWEB-0141             
1 47287U 20100AF  26058.23371858  .00000376  00000+0  10107-2 0  9995
2 47287  87.8990  12.4668 0002024  72.0895 288.0454 13.12443082250250
ONEWEB-0144             
1 47290U 20100AJ  26057.59345788 -.00000374  00000+0 -10761-2 0  9996
2 47290  87.8987  12.5846 0002122  86.3542 273.7829 13.12441829250068
ONEWEB-0115             
1 48042U 21025A   26058.25144172  .00000117  00000+0  28417-3 0  9998
2 48042  87.9049 342.0798 0001720  78.1340 281.9982 13.13468673239165
ONEWEB-0116             
1 48046U 21025E   26057.74527828 -.00000189  00000+0 -55245-3 0  9998
2 48046  87.9048 342.1725 0001618  78.4963 281.6348 13.13468436239158
ONEWEB-0101             
1 48049U 21025H   26058.21928153  .00000156  00000+0  39343-3 0  9993
2 48049  87.9043 342.0974 0001885  82.3119 277.8224 13.13469200239064
ONEWEB-0161             
1 48053U 21025M   26058.24467479  .00000279  00000+0  72983-3 0  9993
2 48053  87.9043 342.0846 0001972  78.5239 281.6111 13.13468506239071
ONEWEB-0162             
1 48056U 21025Q   26058.20560079 -.00000194  00000+0 -56585-3 0  9990
2 48056  87.9049 342.0912 0001815  73.6629 286.4700 13.13471485239100
ONEWEB-0160             
1 48060U 21025U   26058.21419664  .00000055  00000+0  11664-3 0  9992
2 48060  87.9038 342.0976 0001001  81.2656 278.8586 13.13470116239124
ONEWEB-0167             
1 48064U 21025Y   26057.74274726 -.00000234  00000+0 -67634-3 0  9990
2 48064  87.9039 342.1954 0002186  95.5935 264.5444 13.13470425239071
ONEWEB-0170             
1 48067U 21025AB  26058.23282168  .00000448  00000+0  11925-2 0  9993
2 48067  87.9048 342.0871 0001647 105.3597 254.7714 13.13468793239117
ONEWEB-0172             
1 48071U 21025AF  26058.22605302  .00000264  00000+0  68684-3 0  9997
2 48071  87.9036 342.0878 0001865  83.7969 276.3373 13.13469493240076
ONEWEB-0178             
1 48075U 21025AK  26058.26850788 -.00000241  00000+0 -69518-3 0  9999
2 48075  87.9029 342.1056 0001904  86.0361 274.0986 13.13469248239292
ONEWEB-0176             
1 48210U 21031A   26058.26489757 -.00000166  00000+0 -48179-3 0  9997
2 48210  87.9003 311.6286 0001731  82.8243 277.3083 13.14501032233873
ONEWEB-0218             
1 48214U 21031E   26058.18719762 -.00000116  00000+0 -34761-3 0  9991
2 48214  87.9007 311.6363 0002202 102.7659 257.3717 13.14501634233920
